CCSDS_OMM_VERS = 2.0
CREATION_DATE  = 
ORIGINATOR     = 

OBJECT_NAME    = ATLAS CENTAUR 2
OBJECT_ID      = 1963-047A
CENTER_NAME    = EARTH
REF_FRAME      = TEME
TIME_SYSTEM    = UTC
MEAN_ELEMENT_THEORY = SGP/SGP4

EPOCH          = 2026-03-09T09:44:46.728096
MEAN_MOTION    = 14.12066161
ECCENTRICITY   = .05477336
INCLINATION    = 30.3512
RA_OF_ASC_NODE = 197.2270
ARG_OF_PERICENTER = 77.7875
MEAN_ANOMALY   = 288.3499

EPHEMERIS_TYPE = 0
CLASSIFICATION_TYPE = U
NORAD_CAT_ID   = 694
ELEMENT_SET_NO = 999
REV_AT_EPOCH   = 13158
BSTAR          = .21795899E-3
MEAN_MOTION_DOT = .1862E-4
MEAN_MOTION_DDOT = 0

CCSDS_OMM_VERS = 2.0
CREATION_DATE  = 
ORIGINATOR     = 

OBJECT_NAME    = THOR AGENA D R/B
OBJECT_ID      = 1964-002A
CENTER_NAME    = EARTH
REF_FRAME      = TEME
TIME_SYSTEM    = UTC
MEAN_ELEMENT_THEORY = SGP/SGP4

EPOCH          = 2026-03-09T22:34:45.233184
MEAN_MOTION    = 14.34020209
ECCENTRICITY   = .00319668
INCLINATION    = 99.1225
RA_OF_ASC_NODE = 82.2919
ARG_OF_PERICENTER = 257.3738
MEAN_ANOMALY   = 102.3869

EPHEMERIS_TYPE = 0
CLASSIFICATION_TYPE = U
NORAD_CAT_ID   = 733
ELEMENT_SET_NO = 999
REV_AT_EPOCH   = 23833
BSTAR          = .11355036E-3
MEAN_MOTION_DOT = .27E-5
MEAN_MOTION_DDOT = 0

CCSDS_OMM_VERS = 2.0
CREATION_DATE  = 
ORIGINATOR     = 

OBJECT_NAME    = SL-3 R/B
OBJECT_ID      = 1964-053B
CENTER_NAME    = EARTH
REF_FRAME      = TEME
TIME_SYSTEM    = UTC
MEAN_ELEMENT_THEORY = SGP/SGP4

EPOCH          = 2026-03-09T21:31:58.626912
MEAN_MOTION    = 14.61368620
ECCENTRICITY   = .00797893
INCLINATION    = 65.0787
RA_OF_ASC_NODE = 330.6291
ARG_OF_PERICENTER = 292.1547
MEAN_ANOMALY   = 67.1099

EPHEMERIS_TYPE = 0
CLASSIFICATION_TYPE = U
NORAD_CAT_ID   = 877
ELEMENT_SET_NO = 999
REV_AT_EPOCH   = 26682
BSTAR          = .92321009E-4
MEAN_MOTION_DOT = .352E-5
MEAN_MOTION_DDOT = 0

CCSDS_OMM_VERS = 2.0
CREATION_DATE  = 
ORIGINATOR     = 

OBJECT_NAME    = SL-8 R/B
OBJECT_ID      = 1967-045B
CENTER_NAME    = EARTH
REF_FRAME      = TEME
TIME_SYSTEM    = UTC
MEAN_ELEMENT_THEORY = SGP/SGP4

EPOCH          = 2026-03-09T22:06:17.665920
MEAN_MOTION    = 14.45623229
ECCENTRICITY   = .00642267
INCLINATION    = 74.0141
RA_OF_ASC_NODE = 347.6573
ARG_OF_PERICENTER = 353.8591
MEAN_ANOMALY   = 6.1771

EPHEMERIS_TYPE = 0
CLASSIFICATION_TYPE = U
NORAD_CAT_ID   = 2802
ELEMENT_SET_NO = 999
REV_AT_EPOCH   = 8905
BSTAR          = .14915854E-3
MEAN_MOTION_DOT = .512E-5
MEAN_MOTION_DDOT = 0

CCSDS_OMM_VERS = 2.0
CREATION_DATE  = 
ORIGINATOR     = 

OBJECT_NAME    = SL-8 R/B
OBJECT_ID      = 1968-040B
CENTER_NAME    = EARTH
REF_FRAME      = TEME
TIME_SYSTEM    = UTC
MEAN_ELEMENT_THEORY = SGP/SGP4

EPOCH          = 2026-03-09T18:37:46.369632
MEAN_MOTION    = 15.03260494
ECCENTRICITY   = .00239141
INCLINATION    = 74.0322
RA_OF_ASC_NODE = 313.5182
ARG_OF_PERICENTER = 137.3610
MEAN_ANOMALY   = 222.9441

EPHEMERIS_TYPE = 0
CLASSIFICATION_TYPE = U
NORAD_CAT_ID   = 3230
ELEMENT_SET_NO = 999
REV_AT_EPOCH   = 9002
BSTAR          = .25747843E-3
MEAN_MOTION_DOT = .3469E-4
MEAN_MOTION_DDOT = 0

CCSDS_OMM_VERS = 2.0
CREATION_DATE  = 
ORIGINATOR     = 

OBJECT_NAME    = OAO 2
OBJECT_ID      = 1968-110A
CENTER_NAME    = EARTH
REF_FRAME      = TEME
TIME_SYSTEM    = UTC
MEAN_ELEMENT_THEORY = SGP/SGP4

EPOCH          = 2026-03-09T13:49:36.155424
MEAN_MOTION    = 14.47308072
ECCENTRICITY   = .0005852
INCLINATION    = 34.9927
RA_OF_ASC_NODE = 265.8579
ARG_OF_PERICENTER = 204.0746
MEAN_ANOMALY   = 155.9671

EPHEMERIS_TYPE = 0
CLASSIFICATION_TYPE = U
NORAD_CAT_ID   = 3597
ELEMENT_SET_NO = 999
REV_AT_EPOCH   = 1908
BSTAR          = .10274E-3
MEAN_MOTION_DOT = .362E-5
MEAN_MOTION_DDOT = 0

CCSDS_OMM_VERS = 2.0
CREATION_DATE  = 
ORIGINATOR     = 

OBJECT_NAME    = ISIS 1
OBJECT_ID      = 1969-009A
CENTER_NAME    = EARTH
REF_FRAME      = TEME
TIME_SYSTEM    = UTC
MEAN_ELEMENT_THEORY = SGP/SGP4

EPOCH          = 2026-03-09T17:16:39.691776
MEAN_MOTION    = 11.30414200
ECCENTRICITY   = .17077917
INCLINATION    = 88.4542
RA_OF_ASC_NODE = 155.3054
ARG_OF_PERICENTER = 89.1006
MEAN_ANOMALY   = 290.4356

EPHEMERIS_TYPE = 0
CLASSIFICATION_TYPE = U
NORAD_CAT_ID   = 3669
ELEMENT_SET_NO = 999
REV_AT_EPOCH   = 34853
BSTAR          = .10974945E-3
MEAN_MOTION_DOT = .178E-5
MEAN_MOTION_DDOT = 0

CCSDS_OMM_VERS = 2.0
CREATION_DATE  = 
ORIGINATOR     = 

OBJECT_NAME    = SERT 2
OBJECT_ID      = 1970-009A
CENTER_NAME    = EARTH
REF_FRAME      = TEME
TIME_SYSTEM    = UTC
MEAN_ELEMENT_THEORY = SGP/SGP4

EPOCH          = 2026-03-09T20:18:10.493856
MEAN_MOTION    = 13.58729889
ECCENTRICITY   = .00050504
INCLINATION    = 99.2756
RA_OF_ASC_NODE = 11.9309
ARG_OF_PERICENTER = 155.3546
MEAN_ANOMALY   = 266.5977

EPHEMERIS_TYPE = 0
CLASSIFICATION_TYPE = U
NORAD_CAT_ID   = 4327
ELEMENT_SET_NO = 999
REV_AT_EPOCH   = 77991
BSTAR          = .87291447E-4
MEAN_MOTION_DOT = .23E-6
MEAN_MOTION_DDOT = 0

CCSDS_OMM_VERS = 2.0
CREATION_DATE  = 
ORIGINATOR     = 

OBJECT_NAME    = SL-3 R/B
OBJECT_ID      = 1971-028B
CENTER_NAME    = EARTH
REF_FRAME      = TEME
TIME_SYSTEM    = UTC
MEAN_ELEMENT_THEORY = SGP/SGP4

EPOCH          = 2026-03-09T23:26:33.046368
MEAN_MOTION    = 15.61151527
ECCENTRICITY   = .00133529
INCLINATION    = 81.2357
RA_OF_ASC_NODE = 51.6747
ARG_OF_PERICENTER = 284.2285
MEAN_ANOMALY   = 75.7485

EPHEMERIS_TYPE = 0
CLASSIFICATION_TYPE = U
NORAD_CAT_ID   = 5118
ELEMENT_SET_NO = 999
REV_AT_EPOCH   = 98871
BSTAR          = .52549652E-3
MEAN_MOTION_DOT = .44731E-3
MEAN_MOTION_DDOT = 0

CCSDS_OMM_VERS = 2.0
CREATION_DATE  = 
ORIGINATOR     = 

OBJECT_NAME    = ASTEX 1
OBJECT_ID      = 1971-089A
CENTER_NAME    = EARTH
REF_FRAME      = TEME
TIME_SYSTEM    = UTC
MEAN_ELEMENT_THEORY = SGP/SGP4

EPOCH          = 2026-03-09T18:04:46.892928
MEAN_MOTION    = 14.50769842
ECCENTRICITY   = .00178377
INCLINATION    = 92.7122
RA_OF_ASC_NODE = 151.7804
ARG_OF_PERICENTER = 85.7154
MEAN_ANOMALY   = 274.6090

EPHEMERIS_TYPE = 0
CLASSIFICATION_TYPE = U
NORAD_CAT_ID   = 5560
ELEMENT_SET_NO = 999
REV_AT_EPOCH   = 86231
BSTAR          = .15152649E-3
MEAN_MOTION_DOT = .596E-5
MEAN_MOTION_DDOT = 0

CCSDS_OMM_VERS = 2.0
CREATION_DATE  = 
ORIGINATOR     = 

OBJECT_NAME    = SL-8 R/B
OBJECT_ID      = 1971-119B
CENTER_NAME    = EARTH
REF_FRAME      = TEME
TIME_SYSTEM    = UTC
MEAN_ELEMENT_THEORY = SGP/SGP4

EPOCH          = 2026-03-09T17:26:54.866688
MEAN_MOTION    = 14.37860327
ECCENTRICITY   = .05486467
INCLINATION    = 73.8873
RA_OF_ASC_NODE = 175.6490
ARG_OF_PERICENTER = 142.2751
MEAN_ANOMALY   = 221.8237

EPHEMERIS_TYPE = 0
CLASSIFICATION_TYPE = U
NORAD_CAT_ID   = 5730
ELEMENT_SET_NO = 999
REV_AT_EPOCH   = 65549
BSTAR          = .68082483E-3
MEAN_MOTION_DOT = .13069E-3
MEAN_MOTION_DDOT = 0

CCSDS_OMM_VERS = 2.0
CREATION_DATE  = 
ORIGINATOR     = 

OBJECT_NAME    = OAO 3 (COPERNICUS)
OBJECT_ID      = 1972-065A
CENTER_NAME    = EARTH
REF_FRAME      = TEME
TIME_SYSTEM    = UTC
MEAN_ELEMENT_THEORY = SGP/SGP4

EPOCH          = 2026-03-09T10:48:54.999648
MEAN_MOTION    = 14.59997993
ECCENTRICITY   = .00064108
INCLINATION    = 35.0059
RA_OF_ASC_NODE = 298.6786
ARG_OF_PERICENTER = 165.2541
MEAN_ANOMALY   = 193.4015

EPHEMERIS_TYPE = 0
CLASSIFICATION_TYPE = U
NORAD_CAT_ID   = 6153
ELEMENT_SET_NO = 999
REV_AT_EPOCH   = 84615
BSTAR          = .1017141E-3
MEAN_MOTION_DOT = .475E-5
MEAN_MOTION_DDOT = 0

