ATLAS CENTAUR 2         
1 00694U 63047A   26068.40609639  .00001862  00000+0  21796-3 0  9992
2 00694  30.3512 197.2270 0547733  77.7875 288.3499 14.12066161131582
THOR AGENA D R/B        
1 00733U 64002A   26068.94080131  .00000270  00000+0  11355-3 0  9999
2 00733  99.1225  82.2919 0031966 257.3738 102.3869 14.34020209238337
SL-3 R/B                
1 00877U 64053B   26068.89720633  .00000352  00000+0  92321-4 0  9990
2 00877  65.0787 330.6291 0079789 292.1547  67.1099 14.61368620266824
SL-8 R/B                
1 02802U 67045B   26068.92103780  .00000512  00000+0  14916-3 0  9997
2 02802  74.0141 347.6573 0064226 353.8591   6.1771 14.45623229 89052
SL-8 R/B                
1 03230U 68040B   26068.77623113  .00003469  00000+0  25748-3 0  9998
2 03230  74.0322 313.5182 0023914 137.3610 222.9441 15.03260494 90020
OAO 2                   
1 03597U 68110A   26068.57611291  .00000362  00000+0  10274-3 0  9991
2 03597  34.9927 265.8579 0005852 204.0746 155.9671 14.47308072 19083
ISIS 1                  
1 03669U 69009A   26068.71990384  .00000178  00000+0  10975-3 0  9991
2 03669  88.4542 155.3054 1707791  89.1006 290.4356 11.30414200348534
SERT 2                  
1 04327U 70009A   26068.84595479  .00000023  00000+0  87291-4 0  9990
2 04327  99.2756  11.9309 0005050 155.3546 266.5977 13.58729889779913
SL-3 R/B                
1 05118U 71028B   26068.97677137  .00044731  00000+0  52550-3 0  9990
2 05118  81.2357  51.6747 0013352 284.2285  75.7485 15.61151527988711
ASTEX 1                 
1 05560U 71089A   26068.75332052  .00000596  00000+0  15153-3 0  9997
2 05560  92.7122 151.7804 0017837  85.7154 274.6090 14.50769842862317
SL-8 R/B                
1 05730U 71119B   26068.72702392  .00013069  00000+0  68082-3 0  9993
2 05730  73.8873 175.6490 0548646 142.2751 221.8237 14.37860327655495
OAO 3 (COPERNICUS)      
1 06153U 72065A   26068.45063657  .00000475  00000+0  10171-3 0  9991
2 06153  35.0059 298.6786 0006410 165.2541 193.4015 14.59997993846152
